     3.04           N: GNSS NAV DATA    M: Mixed            RINEX VERSION / TYPE
CONVBIN 2.4.3                           20260424 063757 UTC PGM / RUN BY / DATE 
format: u-blox UBX                                          COMMENT             
log: 2026-4-15_174245_serial-COM5(1).ubx                    COMMENT             
                                                            END OF HEADER       
G15 2026 04 15 10 00 00  .403278507292D-03  .329691829393D-11  .000000000000D+00
      .900000000000D+02  .228437500000D+02  .541486840815D-08 -.129286448504D+01
      .170618295670D-05  .166616415372D-01  .351853668690D-05  .515370768929D+04
      .295200000000D+06 -.856816768646D-07 -.205085696727D+01  .348314642906D-06
      .942981756141D+00  .303093750000D+03  .150993555389D+01 -.881786729957D-08
      .295726603914D-09  .100000000000D+01  .241400000000D+04  .000000000000D+00
      .200000000000D+01  .000000000000D+00 -.111758708954D-07  .900000000000D+02
      .294186000000D+06  .400000000000D+01
G20 2026 04 15 10 00 00  .108851585537D-03  .192130755750D-10  .000000000000D+00
      .200000000000D+01 -.462500000000D+01  .500092259421D-08  .238962716417D+01
     -.230967998505D-06  .221104605589D-02  .315904617310D-05  .515375420380D+04
      .295200000000D+06  .223517417908D-07 -.190032979060D+01 -.670552253723D-07
      .960330378758D+00  .318281250000D+03 -.191818114502D+01 -.846928135099D-08
      .117147736816D-09  .100000000000D+01  .241400000000D+04  .000000000000D+00
      .200000000000D+01  .000000000000D+00 -.884756445885D-08  .770000000000D+03
      .294186000000D+06  .400000000000D+01
G29 2026 04 15 10 00 00 -.339842401445D-03  .716227077646D-11  .000000000000D+00
      .600000000000D+02 -.750000000000D+01  .500806574890D-08 -.354669358820D+00
     -.504776835442D-06  .350170605816D-02  .281073153019D-05  .515372962761D+04
      .295200000000D+06  .000000000000D+00  .133574324300D+01 -.540167093277D-07
      .961049585859D+00  .325562500000D+03  .275874688399D+01 -.859285792702D-08
     -.191793703263D-09  .100000000000D+01  .241400000000D+04  .000000000000D+00
      .200000000000D+01  .000000000000D+00 -.977888703346D-08  .600000000000D+02
      .294186000000D+06  .400000000000D+01
G11 2026 04 15 10 00 00 -.372445210814D-03  .127329258248D-10  .000000000000D+00
      .150000000000D+02 -.793750000000D+02  .428303554848D-08 -.110668152703D+01
     -.424310564995D-05  .223211641423D-02  .103283673525D-04  .515359774399D+04
      .295200000000D+06  .115483999252D-06  .235388063217D+01  .689178705215D-07
      .963377969199D+00  .185187500000D+03 -.232819553576D+01 -.800461913880D-08
     -.499663670140D-09  .100000000000D+01  .241400000000D+04  .000000000000D+00
      .200000000000D+01  .000000000000D+00 -.884756445885D-08  .527000000000D+03
      .294186000000D+06  .400000000000D+01
G13 2026 04 15 10 00 00  .679458025843D-03 -.159161572810D-11  .000000000000D+00
      .920000000000D+02 -.263125000000D+02  .474769776067D-08 -.524827401008D+00
     -.118277966976D-05  .101231852314D-01  .381469726562D-05  .515366441536D+04
      .295200000000D+06 -.372529029846D-07 -.172999490356D+01  .111758708954D-06
      .976209146138D+00  .316718750000D+03  .994492112588D+00 -.848463913356D-08
     -.375015620906D-10  .100000000000D+01  .241400000000D+04  .000000000000D+00
      .200000000000D+01  .000000000000D+00 -.116415321827D-07  .920000000000D+02
      .294486000000D+06  .400000000000D+01
J02 2026 04 15 10 00 00 -.216485932469D-05 -.227373675443D-12  .000000000000D+00
      .101000000000D+03  .407750000000D+03  .353871883041D-08 -.388518721604D+00
      .150427222252D-04  .740817927290D-01 -.490620732307D-05  .649384082794D+04
      .295200000000D+06 -.212341547012D-06  .765759146496D+00  .197440385818D-06
      .690197647331D+00  .312750000000D+03 -.155560129368D+01 -.380372986919D-08
      .508592613495D-09  .200000000000D+01  .241400000000D+04  .100000000000D+01
      .280000000000D+01  .100000000000D+01  .139698386192D-08  .869000000000D+03
      .294186000000D+06  .100000000000D+01
S29 2026  4 15  9 43 12  .507570803165D-07  .000000000000D+00  .294207000000D+06
     -.404119440000D+03 -.590625000000D-03  .000000000000D+00  .100000000000D+01
      .421583699200D+05  .485000000000D-03  .000000000000D+00  .819200000000D+04
     -.415720000000D+01 -.111200000000D-02  .000000000000D+00  .000000000000D+00
G05 2026 04 15 10 00 00 -.231757760048D-03 -.454747350886D-12  .000000000000D+00
      .800000000000D+02  .541562500000D+02  .381551607442D-08  .623250763639D-01
      .293739140034D-05  .549801602028D-02  .111144036055D-04  .515372849274D+04
      .295200000000D+06 -.189989805222D-06 -.297099784697D+01  .540167093277D-07
      .980671928419D+00  .177875000000D+03  .142169665974D+01 -.776389482595D-08
      .470019578202D-09  .100000000000D+01  .241400000000D+04  .000000000000D+00
      .200000000000D+01  .000000000000D+00 -.107102096081D-07  .800000000000D+02
      .294246000000D+06  .400000000000D+01
S29 2026  4 15  9 44 16  .507570803165D-07  .000000000000D+00  .294267000000D+06
     -.404157120000D+03 -.585625000000D-03  .000000000000D+00  .100000000000D+01
      .421584009600D+05  .485625000000D-03  .000000000000D+00  .819200000000D+04
     -.422840000000D+01 -.110800000000D-02  .000000000000D+00  .000000000000D+00
S28 2026  4 15  9 43 28  .000000000000D+00  .000000000000D+00  .294270000000D+06
      .508851656000D+04  .305000000000D-03  .125000000000D-06  .100000000000D+01
      .418585832000D+05  .776875000000D-03 -.125000000000D-07  .819200000000D+04
     -.106864000000D+02 -.264800000000D-02  .625000000000D-07  .000000000000D+00
S29 2026  4 15  9 46 24  .507570803165D-07  .000000000000D+00  .294387000000D+06
     -.404231440000D+03 -.576250000000D-03  .000000000000D+00  .100000000000D+01
      .421584632000D+05  .486875000000D-03  .000000000000D+00  .819200000000D+04
     -.437000000000D+01 -.110400000000D-02  .000000000000D+00  .000000000000D+00
J03 2026 04 15 10 00 00 -.261235982180D-05 -.454747350886D-12  .000000000000D+00
      .101000000000D+03 -.198281250000D+03  .333549607966D-08 -.210766695073D+01
     -.881589949131D-05  .744197193999D-01  .281315296888D-04  .649345738602D+04
      .295200000000D+06  .184029340744D-05  .251646001700D+01  .288337469101D-05
      .700666635818D+00 -.774875000000D+03 -.156494142143D+01 -.344764360819D-08
     -.107147320259D-08  .200000000000D+01  .241400000000D+04  .100000000000D+01
      .280000000000D+01  .100000000000D+01  .000000000000D+00  .869000000000D+03
      .294456000000D+06  .100000000000D+01
S28 2026  4 15  9 47 44  .000000000000D+00  .000000000000D+00  .294438000000D+06
      .508859648000D+04  .335000000000D-03  .125000000000D-06  .100000000000D+01
      .418587836000D+05  .771875000000D-03 -.125000000000D-07  .819200000000D+04
     -.113660000000D+02 -.263600000000D-02  .625000000000D-07  .000000000000D+00
S29 2026  4 15  9 47 12  .507570803165D-07  .000000000000D+00  .294447000000D+06
     -.404258960000D+03 -.572500000000D-03  .000000000000D+00  .100000000000D+01
      .421584865600D+05  .487500000000D-03  .000000000000D+00  .819200000000D+04
     -.442320000000D+01 -.110400000000D-02  .000000000000D+00  .000000000000D+00
S37 2026  4 15  9 47 44  .172294676304D-07  .000000000000D+00  .294480000000D+06
     -.253548887200D+05  .287500000000D-04  .000000000000D+00  .100000000000D+01
      .336908251200D+05  .375000000000D-03  .000000000000D+00  .819200000000D+04
     -.626820000000D+02 -.424000000000D-03  .000000000000D+00  .000000000000D+00
S29 2026  4 15  9 48 16  .507570803165D-07  .000000000000D+00  .294508000000D+06
     -.404295440000D+03 -.567500000000D-03  .000000000000D+00  .100000000000D+01
      .421585177600D+05  .488125000000D-03  .000000000000D+00  .819200000000D+04
     -.449400000000D+01 -.110400000000D-02  .000000000000D+00  .000000000000D+00
